0 THOR 3
1 25358U 98035A   13281.31233150 -.00000047  00000-0  00000+0 0  3200
2 25358 002.9277 068.7603 0001665 113.8674 302.6437 01.00271672 56248
0 THOR 3
1 25358U 98035A   13282.08884558 -.00000049  00000-0  00000+0 0  3212
2 25358 002.9287 068.7510 0001381 104.6125 232.2118 01.00271434 56240
0 THOR 3
1 25358U 98035A   13282.32610108 -.00000050  00000-0  00000+0 0  3220
2 25358 002.9337 068.7224 0001460 115.8175 306.6771 01.00271189 56254
0 THOR 3
1 25358U 98035A   13285.09290421 -.00000058  00000-0  00000+0 0  3238
2 25358 002.9401 068.6857 0001581 118.4083 222.8906 01.00271242 56279
0 THOR 3
1 25358U 98035A   13286.16073780 -.00000060  00000-0  00000+0 0  3248
2 25358 002.9427 068.6821 0001765 121.2112 245.5623 01.00271255 56291
0 THOR 3
1 25358U 98035A   13287.09268250 -.00000060  00000-0  00000+0 0  3250
2 25358 002.9484 068.6701 0002507 122.2944 220.9178 01.00271731 56291
0 THOR 3
1 25358U 98035A   13287.77141188 -.00000060  00000-0  00000+0 0  3266
2 25358 002.9554 068.6444 0002511 132.0925 096.1525 01.00271677 56306
0 THOR 3
1 25358U 98035A   13288.15218774 -.00000060  00000-0  00000+0 0  3276
2 25358 002.9512 068.6605 0003313 116.8141 248.8821 01.00271844 56312
0 THOR 3
1 25358U 98035A   13289.11312556 -.00000059  00000-0  00000+0 0  3285
2 25358 002.9607 068.6159 0002507 133.4887 219.1273 01.00272375 56319
0 THOR 3
1 25358U 98035A   13290.14112800 -.00000058  00000-0  00000+0 0  3290
2 25358 002.9607 068.6212 0002575 133.4342 230.2726 01.00272507 56336
0 THOR 3
1 25358U 98035A   13292.10917727 -.00000054  00000-0  00000+0 0  3307
2 25358 002.9653 068.6056 0002686 133.1226 221.0489 01.00273241 56345
0 THOR 3
1 25358U 98035A   13293.21474384 -.00000052  00000-0  00000+0 0  3316
2 25358 002.9609 068.6291 0002758 146.7241 246.5182 01.00273450 56360
0 THOR 3
1 25358U 98035A   13295.04650229 -.00000049  00000-0  00000+0 0  3320
2 25358 002.9648 068.6107 0002853 147.4180 187.0932 01.00273792 56377
